[{"OBJECT_NAME":"ORBCOMM FM06","OBJECT_ID":"1997-084G","EPOCH":"2026-03-09T15:06:31.906944","MEAN_MOTION":14.47270413,"ECCENTRICITY":0.0001937,"INCLINATION":45.0122,"RA_OF_ASC_NODE":171.8858,"ARG_OF_PERICENTER":196.1809,"MEAN_ANOMALY":301.713,"EPHEMERIS_TYPE":0,"CLASSIFICATION_TYPE":"U","NORAD_CAT_ID":25118,"ELEMENT_SET_NO":999,"REV_AT_EPOCH":47996,"BSTAR":0.00064878,"MEAN_MOTION_DOT":2.251e-5,"MEAN_MOTION_DDOT":0},{"OBJECT_NAME":"CZ-6A DEB","OBJECT_ID":"2022-151WF","EPOCH":"2026-03-09T14:53:51.510048","MEAN_MOTION":14.70635082,"ECCENTRICITY":0.0104309,"INCLINATION":98.441,"RA_OF_ASC_NODE":113.6179,"ARG_OF_PERICENTER":171.4887,"MEAN_ANOMALY":188.8119,"EPHEMERIS_TYPE":0,"CLASSIFICATION_TYPE":"U","NORAD_CAT_ID":55214,"ELEMENT_SET_NO":999,"REV_AT_EPOCH":17090,"BSTAR":0.0014323,"MEAN_MOTION_DOT":9.434e-5,"MEAN_MOTION_DDOT":0}]
